{
  "type": "FeatureCollection",
  "features": [
    {
      "type": "Feature",
      "properties": {
        "norad_id": 44333,
        "name": "AT&T T-16",
        "group": "intelsat",
        "lat": 0.006170866885381969,
        "lon": -167.26408756816977,
        "alt_km": 35785.080088709794,
        "timestamp": "2025-12-17T13:48:37.212285+00:00",
        "meta_object_name": "AT&T T-16",
        "meta_object_id": "2019-034A",
        "meta_epoch": "2025-12-17T06:51:09.054144",
        "meta_mean_motion": 1.00269574,
        "meta_eccentricity": 7.795e-05,
        "meta_inclination": 0.0243,
        "meta_ra_of_asc_node": 64.3003,
        "meta_arg_of_pericenter": 68.469,
        "meta_mean_anomaly": 315.3201,
        "meta_ephemeris_type": 0,
        "meta_classification_type": "U",
        "meta_norad_cat_id": 44333,
        "meta_element_set_no": 999,
        "meta_rev_at_epoch": 2381,
        "meta_bstar": 0,
        "meta_mean_motion_dot": -9e-07,
        "meta_mean_motion_ddot": 0,
        "tle_line1": "1 44333U 19034A   25351.28552146 -.00000090  00000+0  00000+0 0  9991",
        "tle_line2": "2 44333   0.0243  64.3003 0000779  68.4690 315.3201  1.00269574 23813"
      },
      "geometry": {
        "type": "Point",
        "coordinates": [
          -167.26408756816977,
          0.006170866885381969
        ]
      }
    },
    {
      "type": "Feature",
      "properties": {
        "norad_id": 44476,
        "name": "INTELSAT 39 (IS-39)",
        "group": "intelsat",
        "lat": 0.015063595660348596,
        "lon": -4.473856335958734,
        "alt_km": 35791.00570219388,
        "timestamp": "2025-12-17T13:48:37.212296+00:00",
        "meta_object_name": "INTELSAT 39 (IS-39)",
        "meta_object_id": "2019-049B",
        "meta_epoch": "2025-12-16T15:21:48.311136",
        "meta_mean_motion": 1.00270803,
        "meta_eccentricity": 0.00013758,
        "meta_inclination": 0.0182,
        "meta_ra_of_asc_node": 330.6719,
        "meta_arg_of_pericenter": 169.661,
        "meta_mean_anomaly": 237.5916,
        "meta_ephemeris_type": 0,
        "meta_classification_type": "U",
        "meta_norad_cat_id": 44476,
        "meta_element_set_no": 999,
        "meta_rev_at_epoch": 2329,
        "meta_bstar": 0,
        "meta_mean_motion_dot": 5.7e-07,
        "meta_mean_motion_ddot": 0,
        "tle_line1": "1 44476U 19049B   25350.64014249  .00000057  00000+0  00000+0 0  9993",
        "tle_line2": "2 44476   0.0182 330.6719 0001375 169.6610 237.5916  1.00270803 23292"
      },
      "geometry": {
        "type": "Point",
        "coordinates": [
          -4.473856335958734,
          0.015063595660348596
        ]
      }
    },
    {
      "type": "Feature",
      "properties": {
        "norad_id": 46114,
        "name": "GALAXY 30 (G-30)",
        "group": "intelsat",
        "lat": 0.007142258159710568,
        "lon": 168.57323071635915,
        "alt_km": 35786.6707129932,
        "timestamp": "2025-12-17T13:48:37.212307+00:00",
        "meta_object_name": "GALAXY 30 (G-30)",
        "meta_object_id": "2020-056C",
        "meta_epoch": "2025-12-16T10:32:38.625216",
        "meta_mean_motion": 1.00271809,
        "meta_eccentricity": 0.00020504,
        "meta_inclination": 0.0174,
        "meta_ra_of_asc_node": 8.9673,
        "meta_arg_of_pericenter": 254.0657,
        "meta_mean_anomaly": 215.4609,
        "meta_ephemeris_type": 0,
        "meta_classification_type": "U",
        "meta_norad_cat_id": 46114,
        "meta_element_set_no": 999,
        "meta_rev_at_epoch": 1946,
        "meta_bstar": 0,
        "meta_mean_motion_dot": 6e-07,
        "meta_mean_motion_ddot": 0,
        "tle_line1": "1 46114U 20056C   25350.43933594  .00000060  00000+0  00000+0 0  9998",
        "tle_line2": "2 46114   0.0174   8.9673 0002050 254.0657 215.4609  1.00271809 19464"
      },
      "geometry": {
        "type": "Point",
        "coordinates": [
          168.57323071635915,
          0.007142258159710568
        ]
      }
    },
    {
      "type": "Feature",
      "properties": {
        "norad_id": 54026,
        "name": "GALAXY 33 (G-33)",
        "group": "intelsat",
        "lat": 0.009531076159308571,
        "lon": 160.58836981091946,
        "alt_km": 35786.8825396386,
        "timestamp": "2025-12-17T13:48:37.212318+00:00",
        "meta_object_name": "GALAXY 33 (G-33)",
        "meta_object_id": "2022-128A",
        "meta_epoch": "2025-12-17T05:07:38.720640",
        "meta_mean_motion": 1.00273494,
        "meta_eccentricity": 0.00017525,
        "meta_inclination": 0.0162,
        "meta_ra_of_asc_node": 1.7477,
        "meta_arg_of_pericenter": 259.0138,
        "meta_mean_anomaly": 129.2561,
        "meta_ephemeris_type": 0,
        "meta_classification_type": "U",
        "meta_norad_cat_id": 54026,
        "meta_element_set_no": 999,
        "meta_rev_at_epoch": 1191,
        "meta_bstar": 0,
        "meta_mean_motion_dot": 1.03e-06,
        "meta_mean_motion_ddot": 0,
        "tle_line1": "1 54026U 22128A   25351.21364260  .00000103  00000+0  00000+0 0  9994",
        "tle_line2": "2 54026   0.0162   1.7477 0001752 259.0138 129.2561  1.00273494 11915"
      },
      "geometry": {
        "type": "Point",
        "coordinates": [
          160.58836981091946,
          0.009531076159308571
        ]
      }
    },
    {
      "type": "Feature",
      "properties": {
        "norad_id": 54027,
        "name": "GALAXY 34 (G-34)",
        "group": "intelsat",
        "lat": -0.005629547685191963,
        "lon": 164.65182305443398,
        "alt_km": 35786.80547135016,
        "timestamp": "2025-12-17T13:48:37.212329+00:00",
        "meta_object_name": "GALAXY 34 (G-34)",
        "meta_object_id": "2022-128B",
        "meta_epoch": "2025-12-16T10:54:44.613792",
        "meta_mean_motion": 1.00271358,
        "meta_eccentricity": 0.00014405,
        "meta_inclination": 0.0238,
        "meta_ra_of_asc_node": 335.9527,
        "meta_arg_of_pericenter": 285.2083,
        "meta_mean_anomaly": 218.9464,
        "meta_ephemeris_type": 0,
        "meta_classification_type": "U",
        "meta_norad_cat_id": 54027,
        "meta_element_set_no": 999,
        "meta_rev_at_epoch": 1208,
        "meta_bstar": 0,
        "meta_mean_motion_dot": 0,
        "meta_mean_motion_ddot": 0,
        "tle_line1": "1 54027U 22128B   25350.45468303  .00000000  00000+0  00000+0 0  9999",
        "tle_line2": "2 54027   0.0238 335.9527 0001440 285.2083 218.9464  1.00271358 12086"
      },
      "geometry": {
        "type": "Point",
        "coordinates": [
          164.65182305443398,
          -0.005629547685191963
        ]
      }
    },
    {
      "type": "Feature",
      "properties": {
        "norad_id": 54243,
        "name": "GALAXY 31 (G-31)",
        "group": "intelsat",
        "lat": 0.010021500833201082,
        "lon": 172.57396235165677,
        "alt_km": 35788.074496705536,
        "timestamp": "2025-12-17T13:48:37.212341+00:00",
        "meta_object_name": "GALAXY 31 (G-31)",
        "meta_object_id": "2022-153A",
        "meta_epoch": "2025-12-17T04:11:22.587072",
        "meta_mean_motion": 1.00271859,
        "meta_eccentricity": 0.00014875,
        "meta_inclination": 0.0176,
        "meta_ra_of_asc_node": 27.0673,
        "meta_arg_of_pericenter": 254.5573,
        "meta_mean_anomaly": 106.2713,
        "meta_ephemeris_type": 0,
        "meta_classification_type": "U",
        "meta_norad_cat_id": 54243,
        "meta_element_set_no": 999,
        "meta_rev_at_epoch": 530,
        "meta_bstar": 0,
        "meta_mean_motion_dot": 0,
        "meta_mean_motion_ddot": 0,
        "tle_line1": "1 54243U 22153A   25351.17456698  .00000000  00000+0  00000+0 0  9991",
        "tle_line2": "2 54243   0.0176  27.0673 0001487 254.5573 106.2713  1.00271859  5301"
      },
      "geometry": {
        "type": "Point",
        "coordinates": [
          172.57396235165677,
          0.010021500833201082
        ]
      }
    },
    {
      "type": "Feature",
      "properties": {
        "norad_id": 54244,
        "name": "GALAXY 32 (G-32)",
        "group": "intelsat",
        "lat": -0.024243471607851907,
        "lon": -157.4339313436155,
        "alt_km": 35790.90853819082,
        "timestamp": "2025-12-17T13:48:37.212352+00:00",
        "meta_object_name": "GALAXY 32 (G-32)",
        "meta_object_id": "2022-153B",
        "meta_epoch": "2025-12-17T04:19:59.261664",
        "meta_mean_motion": 1.00271531,
        "meta_eccentricity": 0.000259,
        "meta_inclination": 0.0104,
        "meta_ra_of_asc_node": 339.7375,
        "meta_arg_of_pericenter": 338.8221,
        "meta_mean_anomaly": 101.4983,
        "meta_ephemeris_type": 0,
        "meta_classification_type": "U",
        "meta_norad_cat_id": 54244,
        "meta_element_set_no": 999,
        "meta_rev_at_epoch": 1131,
        "meta_bstar": 0,
        "meta_mean_motion_dot": -1.5e-06,
        "meta_mean_motion_ddot": 0,
        "tle_line1": "1 54244U 22153B   25351.18054701 -.00000150  00000+0  00000+0 0  9999",
        "tle_line2": "2 54244   0.0104 339.7375 0002590 338.8221 101.4983  1.00271531 11318"
      },
      "geometry": {
        "type": "Point",
        "coordinates": [
          -157.4339313436155,
          -0.024243471607851907
        ]
      }
    }
  ]
}